COSMOS 2228             
1 22286U 92094A   25328.97319638  .00003171  00000+0  27552-3 0  9995
2 22286  82.5176 337.5343 0016490 297.0695  62.8844 14.96608275760392
SL-16 R/B               
1 22566U 93016B   25328.75291495  .00000130  00000+0  91044-4 0  9997
2 22566  71.0086  75.5788 0008313 131.1749 229.0092 14.15288503687323
COSMOS 2242             
1 22626U 93024A   25328.84448196  .00002732  00000+0  24091-3 0  9992
2 22626  82.5198   6.9482 0014950 300.5868  59.3879 14.95999241764710
SL-16 R/B               
1 22803U 93059B   25328.80425821 -.00000165  00000+0 -57787-4 0  9992
2 22803  70.9898 232.3052 0016918   2.3422 357.7778 14.17208134664677
ARIANE 40 R/B           
1 22830U 93061H   25328.74078384  .00000320  00000+0  13311-3 0  9991
2 22830  98.5097  34.5965 0009888 230.7756 129.2551 14.32784545679077
COSMOS 2278             
1 23087U 94023A   25328.92535715  .00000224  00000+0  14177-3 0  9995
2 23087  71.0558  34.2804 0009356 203.6627 156.4067 14.14348645629992
SL-16 R/B               
1 23088U 94023B   25328.87828992  .00000147  00000+0  10042-3 0  9993
2 23088  70.9990 290.9950 0001138 116.2084 243.9156 14.14992006631260
SL-16 R/B               
1 23343U 94074B   25328.69191794  .00000559  00000+0  81873-4 0  9994
2 23343  97.7224 358.7123 0006172 190.8793 282.7495 14.79259092671728
SL-16 R/B               
1 23405U 94077B   25328.97140980 -.00000202  00000+0 -78901-4 0  9993
2 23405  70.9821 212.7926 0004536 298.4593  61.6073 14.15547461601413
ARIANE 40+ R/B          
1 23561U 95021B   25328.81729802  .00000418  00000+0  14750-3 0  9993
2 23561  98.4671  36.6209 0007928  96.6241  24.9467 14.39675304604154
SL-16 R/B               
1 23705U 95058B   25328.61987476 -.00000065  00000+0 -89439-5 0  9992
2 23705  71.0224  40.8464 0014915 278.2433  81.6998 14.15474558552984
SL-16 R/B               
1 24298U 96051B   25328.64142432 -.00000017  00000+0  17443-4 0  9993
2 24298  70.7608  37.5919 0018783 283.8563  76.0467 14.12394084506817
