CCSDS_OMM_VERS = 2.0
CREATION_DATE  = 
ORIGINATOR     = 

OBJECT_NAME    = COSMOS 2228
OBJECT_ID      = 1992-094A
CENTER_NAME    = EARTH
REF_FRAME      = TEME
TIME_SYSTEM    = UTC
MEAN_ELEMENT_THEORY = SGP/SGP4

EPOCH          = 2025-11-24T23:21:24.167232
MEAN_MOTION    = 14.96608275
ECCENTRICITY   = .00164909
INCLINATION    = 82.5176
RA_OF_ASC_NODE = 337.5343
ARG_OF_PERICENTER = 297.0695
MEAN_ANOMALY   = 62.8844

EPHEMERIS_TYPE = 0
CLASSIFICATION_TYPE = U
NORAD_CAT_ID   = 22286
ELEMENT_SET_NO = 999
REV_AT_EPOCH   = 76039
BSTAR          = .27551729E-3
MEAN_MOTION_DOT = .3171E-4
MEAN_MOTION_DDOT = 0

CCSDS_OMM_VERS = 2.0
CREATION_DATE  = 
ORIGINATOR     = 

OBJECT_NAME    = SL-16 R/B
OBJECT_ID      = 1993-016B
CENTER_NAME    = EARTH
REF_FRAME      = TEME
TIME_SYSTEM    = UTC
MEAN_ELEMENT_THEORY = SGP/SGP4

EPOCH          = 2025-11-24T18:04:11.851680
MEAN_MOTION    = 14.15288503
ECCENTRICITY   = .00083131
INCLINATION    = 71.0086
RA_OF_ASC_NODE = 75.5788
ARG_OF_PERICENTER = 131.1749
MEAN_ANOMALY   = 229.0092

EPHEMERIS_TYPE = 0
CLASSIFICATION_TYPE = U
NORAD_CAT_ID   = 22566
ELEMENT_SET_NO = 999
REV_AT_EPOCH   = 68732
BSTAR          = .91043719E-4
MEAN_MOTION_DOT = .13E-5
MEAN_MOTION_DDOT = 0

CCSDS_OMM_VERS = 2.0
CREATION_DATE  = 
ORIGINATOR     = 

OBJECT_NAME    = COSMOS 2242
OBJECT_ID      = 1993-024A
CENTER_NAME    = EARTH
REF_FRAME      = TEME
TIME_SYSTEM    = UTC
MEAN_ELEMENT_THEORY = SGP/SGP4

EPOCH          = 2025-11-24T20:16:03.241344
MEAN_MOTION    = 14.95999241
ECCENTRICITY   = .00149507
INCLINATION    = 82.5198
RA_OF_ASC_NODE = 6.9482
ARG_OF_PERICENTER = 300.5868
MEAN_ANOMALY   = 59.3879

EPHEMERIS_TYPE = 0
CLASSIFICATION_TYPE = U
NORAD_CAT_ID   = 22626
ELEMENT_SET_NO = 999
REV_AT_EPOCH   = 76471
BSTAR          = .24090936E-3
MEAN_MOTION_DOT = .2732E-4
MEAN_MOTION_DDOT = 0

CCSDS_OMM_VERS = 2.0
CREATION_DATE  = 
ORIGINATOR     = 

OBJECT_NAME    = SL-16 R/B
OBJECT_ID      = 1993-059B
CENTER_NAME    = EARTH
REF_FRAME      = TEME
TIME_SYSTEM    = UTC
MEAN_ELEMENT_THEORY = SGP/SGP4

EPOCH          = 2025-11-24T19:18:07.909344
MEAN_MOTION    = 14.17208134
ECCENTRICITY   = .00169185
INCLINATION    = 70.9898
RA_OF_ASC_NODE = 232.3052
ARG_OF_PERICENTER = 2.3422
MEAN_ANOMALY   = 357.7778

EPHEMERIS_TYPE = 0
CLASSIFICATION_TYPE = U
NORAD_CAT_ID   = 22803
ELEMENT_SET_NO = 999
REV_AT_EPOCH   = 66467
BSTAR          = -.57787338E-4
MEAN_MOTION_DOT = -.165E-5
MEAN_MOTION_DDOT = 0

CCSDS_OMM_VERS = 2.0
CREATION_DATE  = 
ORIGINATOR     = 

OBJECT_NAME    = ARIANE 40 R/B
OBJECT_ID      = 1993-061H
CENTER_NAME    = EARTH
REF_FRAME      = TEME
TIME_SYSTEM    = UTC
MEAN_ELEMENT_THEORY = SGP/SGP4

EPOCH          = 2025-11-24T17:46:43.723776
MEAN_MOTION    = 14.32784545
ECCENTRICITY   = .00098889
INCLINATION    = 98.5097
RA_OF_ASC_NODE = 34.5965
ARG_OF_PERICENTER = 230.7756
MEAN_ANOMALY   = 129.2551

EPHEMERIS_TYPE = 0
CLASSIFICATION_TYPE = U
NORAD_CAT_ID   = 22830
ELEMENT_SET_NO = 999
REV_AT_EPOCH   = 67907
BSTAR          = .13310694E-3
MEAN_MOTION_DOT = .32E-5
MEAN_MOTION_DDOT = 0

CCSDS_OMM_VERS = 2.0
CREATION_DATE  = 
ORIGINATOR     = 

OBJECT_NAME    = COSMOS 2278
OBJECT_ID      = 1994-023A
CENTER_NAME    = EARTH
REF_FRAME      = TEME
TIME_SYSTEM    = UTC
MEAN_ELEMENT_THEORY = SGP/SGP4

EPOCH          = 2025-11-24T22:12:30.857760
MEAN_MOTION    = 14.14348645
ECCENTRICITY   = .00093567
INCLINATION    = 71.0558
RA_OF_ASC_NODE = 34.2804
ARG_OF_PERICENTER = 203.6627
MEAN_ANOMALY   = 156.4067

EPHEMERIS_TYPE = 0
CLASSIFICATION_TYPE = U
NORAD_CAT_ID   = 23087
ELEMENT_SET_NO = 999
REV_AT_EPOCH   = 62999
BSTAR          = .14177085E-3
MEAN_MOTION_DOT = .224E-5
MEAN_MOTION_DDOT = 0

CCSDS_OMM_VERS = 2.0
CREATION_DATE  = 
ORIGINATOR     = 

OBJECT_NAME    = SL-16 R/B
OBJECT_ID      = 1994-023B
CENTER_NAME    = EARTH
REF_FRAME      = TEME
TIME_SYSTEM    = UTC
MEAN_ELEMENT_THEORY = SGP/SGP4

EPOCH          = 2025-11-24T21:04:44.249088
MEAN_MOTION    = 14.14992006
ECCENTRICITY   = .0001138
INCLINATION    = 70.9990
RA_OF_ASC_NODE = 290.9950
ARG_OF_PERICENTER = 116.2084
MEAN_ANOMALY   = 243.9156

EPHEMERIS_TYPE = 0
CLASSIFICATION_TYPE = U
NORAD_CAT_ID   = 23088
ELEMENT_SET_NO = 999
REV_AT_EPOCH   = 63126
BSTAR          = .10042248E-3
MEAN_MOTION_DOT = .147E-5
MEAN_MOTION_DDOT = 0

CCSDS_OMM_VERS = 2.0
CREATION_DATE  = 
ORIGINATOR     = 

OBJECT_NAME    = SL-16 R/B
OBJECT_ID      = 1994-074B
CENTER_NAME    = EARTH
REF_FRAME      = TEME
TIME_SYSTEM    = UTC
MEAN_ELEMENT_THEORY = SGP/SGP4

EPOCH          = 2025-11-24T16:36:21.710016
MEAN_MOTION    = 14.79259092
ECCENTRICITY   = .00061724
INCLINATION    = 97.7224
RA_OF_ASC_NODE = 358.7123
ARG_OF_PERICENTER = 190.8793
MEAN_ANOMALY   = 282.7495

EPHEMERIS_TYPE = 0
CLASSIFICATION_TYPE = U
NORAD_CAT_ID   = 23343
ELEMENT_SET_NO = 999
REV_AT_EPOCH   = 67172
BSTAR          = .8187295E-4
MEAN_MOTION_DOT = .559E-5
MEAN_MOTION_DDOT = 0

CCSDS_OMM_VERS = 2.0
CREATION_DATE  = 
ORIGINATOR     = 

OBJECT_NAME    = SL-16 R/B
OBJECT_ID      = 1994-077B
CENTER_NAME    = EARTH
REF_FRAME      = TEME
TIME_SYSTEM    = UTC
MEAN_ELEMENT_THEORY = SGP/SGP4

EPOCH          = 2025-11-24T23:18:49.806720
MEAN_MOTION    = 14.15547461
ECCENTRICITY   = .00045367
INCLINATION    = 70.9821
RA_OF_ASC_NODE = 212.7926
ARG_OF_PERICENTER = 298.4593
MEAN_ANOMALY   = 61.6073

EPHEMERIS_TYPE = 0
CLASSIFICATION_TYPE = U
NORAD_CAT_ID   = 23405
ELEMENT_SET_NO = 999
REV_AT_EPOCH   = 60141
BSTAR          = -.78900593E-4
MEAN_MOTION_DOT = -.202E-5
MEAN_MOTION_DDOT = 0

CCSDS_OMM_VERS = 2.0
CREATION_DATE  = 
ORIGINATOR     = 

OBJECT_NAME    = ARIANE 40+ R/B
OBJECT_ID      = 1995-021B
CENTER_NAME    = EARTH
REF_FRAME      = TEME
TIME_SYSTEM    = UTC
MEAN_ELEMENT_THEORY = SGP/SGP4

EPOCH          = 2025-11-24T19:36:54.548928
MEAN_MOTION    = 14.39675304
ECCENTRICITY   = .00079281
INCLINATION    = 98.4671
RA_OF_ASC_NODE = 36.6209
ARG_OF_PERICENTER = 96.6241
MEAN_ANOMALY   = 24.9467

EPHEMERIS_TYPE = 0
CLASSIFICATION_TYPE = U
NORAD_CAT_ID   = 23561
ELEMENT_SET_NO = 999
REV_AT_EPOCH   = 60415
BSTAR          = .14750279E-3
MEAN_MOTION_DOT = .418E-5
MEAN_MOTION_DDOT = 0

CCSDS_OMM_VERS = 2.0
CREATION_DATE  = 
ORIGINATOR     = 

OBJECT_NAME    = SL-16 R/B
OBJECT_ID      = 1995-058B
CENTER_NAME    = EARTH
REF_FRAME      = TEME
TIME_SYSTEM    = UTC
MEAN_ELEMENT_THEORY = SGP/SGP4

EPOCH          = 2025-11-24T14:52:37.179264
MEAN_MOTION    = 14.15474558
ECCENTRICITY   = .00149159
INCLINATION    = 71.0224
RA_OF_ASC_NODE = 40.8464
ARG_OF_PERICENTER = 278.2433
MEAN_ANOMALY   = 81.6998

EPHEMERIS_TYPE = 0
CLASSIFICATION_TYPE = U
NORAD_CAT_ID   = 23705
ELEMENT_SET_NO = 999
REV_AT_EPOCH   = 55298
BSTAR          = -.894394E-5
MEAN_MOTION_DOT = -.65E-6
MEAN_MOTION_DDOT = 0

CCSDS_OMM_VERS = 2.0
CREATION_DATE  = 
ORIGINATOR     = 

OBJECT_NAME    = SL-16 R/B
OBJECT_ID      = 1996-051B
CENTER_NAME    = EARTH
REF_FRAME      = TEME
TIME_SYSTEM    = UTC
MEAN_ELEMENT_THEORY = SGP/SGP4

EPOCH          = 2025-11-24T15:23:39.061248
MEAN_MOTION    = 14.12394084
ECCENTRICITY   = .00187831
INCLINATION    = 70.7608
RA_OF_ASC_NODE = 37.5919
ARG_OF_PERICENTER = 283.8563
MEAN_ANOMALY   = 76.0467

EPHEMERIS_TYPE = 0
CLASSIFICATION_TYPE = U
NORAD_CAT_ID   = 24298
ELEMENT_SET_NO = 999
REV_AT_EPOCH   = 50681
BSTAR          = .174435E-4
MEAN_MOTION_DOT = -.17E-6
MEAN_MOTION_DDOT = 0

